[{"OBJECT_NAME":"OBJECT V","OBJECT_ID":"2023-085V","EPOCH":"2026-03-09T21:44:00.165408","MEAN_MOTION":15.30745852,"ECCENTRICITY":0.00069081,"INCLINATION":97.4843,"RA_OF_ASC_NODE":179.3833,"ARG_OF_PERICENTER":71.0503,"MEAN_ANOMALY":289.1485,"EPHEMERIS_TYPE":0,"CLASSIFICATION_TYPE":"U","NORAD_CAT_ID":57023,"ELEMENT_SET_NO":999,"REV_AT_EPOCH":15149,"BSTAR":0.00067780507,"MEAN_MOTION_DOT":0.00020109,"MEAN_MOTION_DDOT":0},{"OBJECT_NAME":"STARLINK-36077","OBJECT_ID":"2025-283AB","EPOCH":"2026-03-09T03:52:52.556160","MEAN_MOTION":15.30183768,"ECCENTRICITY":0.00012343,"INCLINATION":53.1613,"RA_OF_ASC_NODE":26.5921,"ARG_OF_PERICENTER":67.6201,"MEAN_ANOMALY":292.493,"EPHEMERIS_TYPE":0,"CLASSIFICATION_TYPE":"U","NORAD_CAT_ID":66903,"ELEMENT_SET_NO":999,"REV_AT_EPOCH":1576,"BSTAR":0.0010877752,"MEAN_MOTION_DOT":0.0003198,"MEAN_MOTION_DDOT":0}]
